0 FENGYUN 1C DEB
1 37913U 99025ENN 13280.58532615  .00004792  00000-0  15547-2 0   725
2 37913 098.9208 331.0030 0199339 208.9464 150.4635 14.28700636153143
0 FENGYUN 1C DEB
1 37913U 99025ENN 13287.58846347  .00010688  00000-0  34244-2 0   740
2 37913 098.9171 338.1718 0200959 189.0409 170.7132 14.28801605154137
0 FENGYUN 1C DEB
1 37913U 99025ENN 13294.10095685  .00010696  00000-0  34176-2 0   751
2 37913 098.9163 344.8359 0201078 170.4194 190.0913 14.28914007155067
